{
    "links": {
        "self": "http://www.neowsapp.com/rest/v1/neo/3443808?api_key=iIulBulltgU6a56xZRHN4H3l9WmuAYTsLGpBGhQ2"
    },
    "id": "3443808",
    "neo_reference_id": "3443808",
    "name": "(2008 YY32)",
    "designation": "2008 YY32",
    "nasa_jpl_url": "http://ssd.jpl.nasa.gov/sbdb.cgi?sstr=3443808",
    "absolute_magnitude_h": 25.2,
    "estimated_diameter": {
        "kilometers": {
            "estimated_diameter_min": 0.0242412481,
            "estimated_diameter_max": 0.0542050786
        },
        "meters": {
            "estimated_diameter_min": 24.2412481101,
            "estimated_diameter_max": 54.2050786336
        },
        "miles": {
            "estimated_diameter_min": 0.0150628086,
            "estimated_diameter_max": 0.0336814639
        },
        "feet": {
            "estimated_diameter_min": 79.5316564495,
            "estimated_diameter_max": 177.8381901842
        }
    },
    "is_potentially_hazardous_asteroid": false,
    "close_approach_data": [
        {
            "close_approach_date": "2002-12-04",
            "close_approach_date_full": "2002-Dec-04 09:03",
            "epoch_date_close_approach": 1038992580000,
            "relative_velocity": {
                "kilometers_per_second": "21.7546840426",
                "kilometers_per_hour": "78316.8625534946",
                "miles_per_hour": "48663.0527349756"
            },
            "miss_distance": {
                "astronomical": "0.3987476597",
                "lunar": "155.1128396233",
                "kilometers": "59651800.558604839",
                "miles": "37065910.0980272182"
            },
            "orbiting_body": "Earth"
        },
        {
            "close_approach_date": "2005-12-16",
            "close_approach_date_full": "2005-Dec-16 23:46",
            "epoch_date_close_approach": 1134776760000,
            "relative_velocity": {
                "kilometers_per_second": "15.534347265",
                "kilometers_per_hour": "55923.6501539237",
                "miles_per_hour": "34748.7813970311"
            },
            "miss_distance": {
                "astronomical": "0.1914611348",
                "lunar": "74.4783814372",
                "kilometers": "28642177.953862876",
                "miles": "17797424.1030086488"
            },
            "orbiting_body": "Earth"
        },
        {
            "close_approach_date": "2009-01-03",
            "close_approach_date_full": "2009-Jan-03 13:27",
            "epoch_date_close_approach": 1230989220000,
            "relative_velocity": {
                "kilometers_per_second": "10.2916678219",
                "kilometers_per_hour": "37050.0041587774",
                "miles_per_hour": "23021.4317507692"
            },
            "miss_distance": {
                "astronomical": "0.0158077415",
                "lunar": "6.1492114435",
                "kilometers": "2364804.457910605",
                "miles": "1469421.352172149"
            },
            "orbiting_body": "Earth"
        },
        {
            "close_approach_date": "2024-04-07",
            "close_approach_date_full": "2024-Apr-07 18:36",
            "epoch_date_close_approach": 1712514960000,
            "relative_velocity": {
                "kilometers_per_second": "19.0451862845",
                "kilometers_per_hour": "68562.6706243166",
                "miles_per_hour": "42602.1771998705"
            },
            "miss_distance": {
                "astronomical": "0.3407510685",
                "lunar": "132.5521656465",
                "kilometers": "50975634.047824095",
                "miles": "31674790.217778711"
            },
            "orbiting_body": "Earth"
        },
        {
            "close_approach_date": "2027-04-18",
            "close_approach_date_full": "2027-Apr-18 05:03",
            "epoch_date_close_approach": 1808024580000,
            "relative_velocity": {
                "kilometers_per_second": "23.8798737703",
                "kilometers_per_hour": "85967.5455730879",
                "miles_per_hour": "53416.889636789"
            },
            "miss_distance": {
                "astronomical": "0.4968952443",
                "lunar": "193.2922500327",
                "kilometers": "74334470.160409641",
                "miles": "46189297.9314734058"
            },
            "orbiting_body": "Earth"
        }
    ],
    "orbital_data": {
        "orbit_id": "9",
        "orbit_determination_date": "2017-04-06 09:01:44",
        "first_observation_date": "2008-12-31",
        "last_observation_date": "2009-01-04",
        "data_arc_in_days": 4,
        "observations_used": 48,
        "orbit_uncertainty": "7",
        "minimum_orbit_intersection": ".00542397",
        "jupiter_tisserand_invariant": "3.543",
        "epoch_osculation": "2459000.5",
        "eccentricity": ".5499840420760095",
        "semi_major_axis": "2.089388964171634",
        "inclination": "6.042910371675481",
        "ascending_node_longitude": "283.8903930921716",
        "orbital_period": "1103.131717284479",
        "perihelion_distance": ".9402583761875121",
        "perihelion_argument": "212.2109205345177",
        "aphelion_distance": "3.238519552155755",
        "perihelion_time": "2459268.791865017491",
        "mean_anomaly": "272.4446610563832",
        "mean_motion": ".3263436218534201",
        "equinox": "J2000",
        "orbit_class": {
            "orbit_class_type": "APO",
            "orbit_class_description": "Near-Earth asteroid orbits which cross the Earth’s orbit similar to that of 1862 Apollo",
            "orbit_class_range": "a (semi-major axis) > 1.0 AU; q (perihelion) < 1.017 AU"
        }
    },
    "is_sentry_object": false
}